NORAD_CAT_ID,OBJECT_NAME,OBJECT_TYPE,EPOCH,MEAN_MOTION,ECCENTRICITY,INCLINATION,RA_OF_ASC_NODE,ARG_OF_PERICENTER,MEAN_ANOMALY,BSTAR,MEAN_MOTION_DOT,MEAN_MOTION_DDOT,TLE_LINE0,TLE_LINE1,TLE_LINE2,SEMIMAJOR_AXIS,PERIOD,APOGEE,PERIGEE,DECAYED
50167.0,STARLINK-3271,PAYLOAD,2022-07-16 20:39:08,15.08844887,0.0002973,53.2179,117.9367,64.1631,295.9667,0.00011783,1.587e-05,0.0,0 STARLINK-3271,1 50167U 21125M   22197.86051342  .00001587  00000-0  11783-3 0  9994,2 50167  53.2179 117.9367 0002973  64.1631 295.9667 15.08844887 35391,6917.865,95.437,541.7869999999998,537.674,0.0
50167.0,STARLINK-3271,PAYLOAD,2022-07-17 06:11:27,15.08847017,0.0002971,53.2179,116.1526,63.6392,296.4905,0.00014787,2.066e-05,0.0,0 STARLINK-3271,1 50167U 21125M   22198.25795163  .00002066  00000-0  14787-3 0  9994,2 50167  53.2179 116.1526 0002971  63.6392 296.4905 15.08847017 35451,6917.859,95.437,541.779,537.669,0.0
50167.0,STARLINK-3271,PAYLOAD,2022-07-17 18:54:32,15.08837838,0.0002989,53.2179,113.7739,65.8032,294.3273,-2.7276e-05,-7.23e-06,0.0,0 STARLINK-3271,1 50167U 21125M   22198.78787528 -.00000723  00000-0 -27276-4 0  9996,2 50167  53.2179 113.7739 0002989  65.8032 294.3273 15.08837838 35055,6917.887,95.438,541.82,537.684,0.0
50167.0,STARLINK-3271,PAYLOAD,2022-07-17 20:29:55,15.08837303,0.000299,53.218,113.4767,66.4481,293.6825,-7.102100000000001e-05,-1.419e-05,0.0,0 STARLINK-3271,1 50167U 21125M   22198.85411523 -.00001419  00000-0 -71021-4 0  9993,2 50167  53.2180 113.4767 0002990  66.4481 293.6825 15.08837303 35548,6917.889,95.438,541.822,537.685,0.0
50167.0,STARLINK-3271,PAYLOAD,2022-07-18 10:48:24,15.08832216,0.0002913,53.2177,110.8006,62.5752,297.5537,-7.1761e-05,-1.4300000000000004e-05,0.0,0 STARLINK-3271,1 50167U 21125M   22199.45028044 -.00001430  00000-0 -71761-4 0  9996,2 50167  53.2177 110.8006 0002913  62.5752 297.5537 15.08832216 35635,6917.904,95.438,541.784,537.754,0.0
50167.0,STARLINK-3271,PAYLOAD,2022-07-18 20:20:42,15.08836812,0.0002825,53.2176,109.0161,63.5923,296.5359,7.5133e-05,9.07e-06,0.0,0 STARLINK-3271,1 50167U 21125M   22199.84771942  .00000907  00000-0  75133-4 0  9994,2 50167  53.2176 109.0161 0002825  63.5923 296.5359 15.08836812 35210,6917.89,95.438,541.7090000000002,537.8009999999998,0.0
50167.0,STARLINK-3271,PAYLOAD,2022-07-19 10:39:11,15.08834792,0.0002719,53.2176,106.3396,66.6756,293.4522,0.00010177,1.331e-05,0.0,0 STARLINK-3271,1 50167U 21125M   22200.44388152  .00001331  00000-0  10177-3 0  9998,2 50167  53.2176 106.3396 0002719  66.6756 293.4522 15.08834792 35785,6917.896,95.438,541.6419999999998,537.88,0.0
50167.0,STARLINK-3271,PAYLOAD,2022-07-19 21:46:52,15.0885049,0.0002684,53.2172,104.258,68.0299,292.0978,0.00035368,5.347e-05,0.0,0 STARLINK-3271,1 50167U 21125M   22200.90755674  .00005347  00000-0  35368-3 0  9996,2 50167  53.2172 104.2580 0002684  68.0299 292.0978 15.08850490 35853,6917.848000000001,95.437,541.57,537.857,0.0
50167.0,STARLINK-3271,PAYLOAD,2022-07-20 10:29:57,15.0885436,0.0002599,53.217,101.8795,67.2387,292.888,0.00046289,7.089e-05,0.0,0 STARLINK-3271,1 50167U 21125M   22201.43747359  .00007089  00000-0  46289-3 0  9995,2 50167  53.2170 101.8795 0002599  67.2387 292.8880 15.08854360 35935,6917.8359999999975,95.437,541.499,537.904,0.0
50167.0,STARLINK-3271,PAYLOAD,2022-07-20 20:02:16,15.08850378,0.0002544,53.2169,100.096,65.1792,294.9464,0.00048968,7.516e-05,0.0,0 STARLINK-3271,1 50167U 21125M   22201.83491180  .00007516  00000-0  48968-3 0  9998,2 50167  53.2169 100.0960 0002544  65.1792 294.9464 15.08850378 35997,6917.849,95.437,541.474,537.9540000000002,0.0
50167.0,STARLINK-3271,PAYLOAD,2022-07-21 02:23:49,15.08843542,0.0002488,53.2172,98.9054,67.0195,293.106,3.3354e-05,2.42e-06,0.0,0 STARLINK-3271,1 50167U 21125M   22202.09987391  .00000242  00000-0  33354-4 0  9994,2 50167  53.2172  98.9054 0002488  67.0195 293.1060 15.08843542 35555,6917.87,95.437,541.456,538.013,0.0
50167.0,STARLINK-3271,PAYLOAD,2022-07-21 10:20:45,15.08827864,0.0002495,53.2174,97.4188,66.6103,293.5152,-0.00023647,-4.049e-05,0.0,0 STARLINK-3271,1 50167U 21125M   22202.43108098 -.00004049  00000-0 -23647-3 0  9995,2 50167  53.2174  97.4188 0002495  66.6103 293.5152 15.08827864 36085,6917.917,95.438,541.509,538.056,0.0
50167.0,STARLINK-3271,PAYLOAD,2022-07-22 02:14:37,15.08822308,0.0002466,53.2176,94.4446,69.3449,290.7807,-0.00022848,-3.921e-05,0.0,0 STARLINK-3271,1 50167U 21125M   22203.09349374 -.00003921  00000-0 -22848-3 0  9992,2 50167  53.2176  94.4446 0002466  69.3449 290.7807 15.08822308 36187,6917.934,95.439,541.505,538.094,0.0
50167.0,STARLINK-3271,PAYLOAD,2022-07-22 10:11:33,15.0882687,0.0002444,53.218,92.9578,69.128,290.9973,-0.00010443,-1.949e-05,0.0,0 STARLINK-3271,1 50167U 21125M   22203.42469521 -.00001949  00000-0 -10443-3 0  9992,2 50167  53.2180  92.9578 0002444  69.1280 290.9973 15.08826870 36238,6917.920999999999,95.438,541.476,538.095,0.0
50167.0,STARLINK-3271,PAYLOAD,2022-07-23 03:40:48,15.08834374,0.0002353,53.2181,89.6877,68.6544,291.4699,0.00022837,3.348e-05,0.0,0 STARLINK-3271,1 50167U 21125M   22204.15333891  .00003348  00000-0  22837-3 0  9996,2 50167  53.2181  89.6877 0002353  68.6544 291.4699 15.08834374 35867,6917.898,95.438,541.39,538.135,0.0
50167.0,STARLINK-3271,PAYLOAD,2022-07-23 10:02:20,15.08840415,0.0002338,53.2182,88.4983,68.9346,291.1896,0.00030197,4.521e-05,0.0,0 STARLINK-3271,1 50167U 21125M   22204.41829776  .00004521  00000-0  30197-3 0  9999,2 50167  53.2182  88.4983 0002338  68.9346 291.1896 15.08840415 36386,6917.879,95.438,541.362,538.127,0.0
50167.0,STARLINK-3271,PAYLOAD,2022-07-23 19:34:40,15.08836616,0.0002319999999999,53.2183,86.7145,68.9726,291.1514,0.00038338,5.818e-05,0.0,0 STARLINK-3271,1 50167U 21125M   22204.81574306  .00005818  00000-0  38338-3 0  9994,2 50167  53.2183  86.7145 0002320  68.9726 291.1514 15.08836616 36443,6917.891,95.438,541.361,538.151,0.0
50167.0,STARLINK-3271,PAYLOAD,2022-07-24 03:31:35,15.08843138,0.0002292,53.2182,85.2277,67.1371,292.9863,0.00034308,5.177e-05,0.0,0 STARLINK-3271,1 50167U 21125M   22205.14694302  .00005177  00000-0  34308-3 0  9991,2 50167  53.2182  85.2277 0002292  67.1371 292.9863 15.08843138 36495,6917.871,95.437,541.321,538.15,0.0
50167.0,STARLINK-3271,PAYLOAD,2022-07-24 21:00:49,15.08847693,0.0002278999999999,53.2183,81.9569,67.8261,292.2973,0.00020277,2.941e-05,0.0,0 STARLINK-3271,1 50167U 21125M   22205.87557864  .00002941  00000-0  20277-3 0  9998,2 50167  53.2183  81.9569 0002279  67.8261 292.2973 15.08847693 36601,6917.857,95.437,541.298,538.145,0.0
50167.0,STARLINK-3271,PAYLOAD,2022-07-25 03:22:23,15.08833129,0.0002191999999999,53.2182,80.7678,65.9835,294.1386,-0.00011198,-2.07e-05,0.0,0 STARLINK-3271,1 50167U 21125M   22206.14054413 -.00002070  00000-0 -11198-3 0  9998,2 50167  53.2182  80.7678 0002192  65.9835 294.1386 15.08833129 36167,6917.901,95.438,541.283,538.25,0.0
50167.0,STARLINK-3271,PAYLOAD,2022-07-25 08:08:32,15.08833874,0.0002213,53.2182,79.8757,67.1367,292.9859,-4.9949e-05,-1.083e-05,0.0,0 STARLINK-3271,1 50167U 21125M   22206.33926590 -.00001083  00000-0 -49949-4 0  9992,2 50167  53.2182  79.8757 0002213  67.1367 292.9859 15.08833874 36676,6917.899,95.438,541.295,538.2330000000002,0.0
50167.0,STARLINK-3271,PAYLOAD,2022-07-25 19:16:14,15.0883406,0.0002133999999999,53.2181,77.7942,66.3348,293.7868,5.356799999999998e-06,-2.03e-06,0.0,0 STARLINK-3271,1 50167U 21125M   22206.80294676 -.00000203  00000-0  53568-5 0  9992,2 50167  53.2181  77.7942 0002134  66.3348 293.7868 15.08834060 36745,6917.899,95.438,541.24,538.2869999999998,0.0
50167.0,STARLINK-3271,PAYLOAD,2022-07-26 07:59:19,15.08840609,0.0002165999999999,53.2182,75.4155,67.5717,292.5504,0.00011964,1.616e-05,0.0,0 STARLINK-3271,1 50167U 21125M   22207.33286556  .00001616  00000-0  11964-3 0  9999,2 50167  53.2182  75.4155 0002166  67.5717 292.5504 15.08840609 36824,6917.879,95.438,541.242,538.245,0.0
50167.0,STARLINK-3271,PAYLOAD,2022-07-26 20:42:24,15.08843587,0.0002171,53.2181,73.0368,67.8281,292.2941,0.00020987,3.054e-05,0.0,0 STARLINK-3271,1 50167U 21125M   22207.86278500  .00003054  00000-0  20987-3 0  9990,2 50167  53.2181  73.0368 0002171  67.8281 292.2941 15.08843587 36907,6917.869000000002,95.437,541.236,538.2330000000002,0.0
50167.0,STARLINK-3271,PAYLOAD,2022-07-27 07:50:06,15.08848859,0.0002182,53.2181,70.9553,67.7607,292.3616,0.00032538,4.895e-05,0.0,0 STARLINK-3271,1 50167U 21125M   22208.32646294  .00004895  00000-0  32538-3 0  9990,2 50167  53.2181  70.9553 0002182  67.7607 292.3616 15.08848859 36976,6917.853,95.437,541.2280000000002,538.2090000000002,0.0
50167.0,STARLINK-3271,PAYLOAD,2022-07-27 18:57:47,15.08855984,0.0002188,53.218,68.8739,69.3147,290.808,0.0003516,5.314e-05,0.0,0 STARLINK-3271,1 50167U 21125M   22208.79013787  .00005314  00000-0  35160-3 0  9997,2 50167  53.2180  68.8739 0002188  69.3147 290.8080 15.08855984 37044,6917.831999999999,95.437,541.21,538.183,0.0
50167.0,STARLINK-3271,PAYLOAD,2022-07-27 20:33:10,15.08857786,0.0002186,53.2179,68.5767,69.3729,290.7498,0.0003625,5.489e-05,0.0,0 STARLINK-3271,1 50167U 21125M   22208.85637683  .00005489  00000-0  36250-3 0  9995,2 50167  53.2179  68.5767 0002186  69.3729 290.7498 15.08857786 36575,6917.826,95.436,541.203,538.179,0.0
50167.0,STARLINK-3271,PAYLOAD,2022-07-28 07:40:52,15.08848574,0.0002201999999999,53.2178,66.4952,69.9615,290.1614,6.2501e-05,7.07e-06,0.0,0 STARLINK-3271,1 50167U 21125M   22209.32005653  .00000707  00000-0  62501-4 0  9991,2 50167  53.2178  66.4952 0002202  69.9615 290.1614 15.08848574 37127,6917.854,95.437,541.242,538.196,0.0
50167.0,STARLINK-3271,PAYLOAD,2022-07-28 18:48:34,15.088482,0.0002228,53.2182,64.4132,70.5145,289.6088,8.224299999999999e-05,1.021e-05,0.0,0 STARLINK-3271,1 50167U 21125M   22209.78373578  .00001021  00000-0  82243-4 0  9990,2 50167  53.2182  64.4132 0002228  70.5145 289.6088 15.08848200 37195,6917.855,95.437,541.262,538.179,0.0
